1 43811U 18099BF  25312.55276176  .00007318  00000+0  49156-3 0  9992
2 43811  97.4389 357.8118 0013029  19.6422 340.5305 15.07009174378632